[
  {
    "place_name": "煙波大飯店台南館",
    "place_id": "ChIJDygZSKp3bjQRAtS_auKYwNI",
    "cost": 4000
  },
  {
    "place_name": "台南晶英酒店",
    "place_id": "ChIJDzX2d3x2bjQRha-HOsf7LIA",
    "cost": 6000
  },
  {
    "place_name": "U.I.J Hotel & Hostel - 友愛街旅館",
    "place_id": "ChIJmTZLr3x2bjQRZE6G_9_d5co",
    "cost": 4000
  },
  {
    "place_name": "泊樂行旅 中正館",
    "place_id": "ChIJHTQukS53bjQRC2qAy-T8-rA",
    "cost": 3000
  },
  {
    "place_name": "Oinn Hotel & Hostel Tainan－巷弄潮旅",
    "place_id": "ChIJidi1EDt3bjQRpiKeZAuyLQI",
    "cost": 3000
  },
  {
    "place_name": "仲青行旅台南館",
    "place_id": "ChIJSW7kznp2bjQR_SpfPICF-8g",
    "cost": 1500
  },
  {
    "place_name": "長悅旅棧 CHANGYU HOTEL",
    "place_id": "ChIJX-PjLo92bjQRIj781Y0hvhw",
    "cost": 2000
  },
  {
    "place_name": "康橋商旅 臺南赤崁樓館",
    "place_id": "ChIJAZ1KDWJ2bjQRp5Q57JJsrkk",
    "cost": 2000
  },
  {
    "place_name": "富信大飯店",
    "place_id": "ChIJc_XL52B2bjQRsvmOc9jhIkQ",
    "cost": 3000
  },
  {
    "place_name": "台南老爺行旅",
    "place_id": "ChIJoVBVBbx2bjQRBGjOtYbf8ZA",
    "cost": 3000
  },
  {
    "place_name": "香格里拉台南遠東國際大飯店",
    "place_id": "ChIJB-i_B412bjQR91MGqJm0FZk",
    "cost": 5000
  },
  {
    "place_name": "台糖長榮酒店 台南",
    "place_id": "ChIJb6goICd0bjQR1rWu9-8ymhA",
    "cost": 3000
  },
  {
    "place_name": "湧福驛站-臨安館",
    "place_id": "ChIJaey2t1V3bjQR8mVwZhD7FDw",
    "cost": 2000
  },
  {
    "place_name": "漫半拍民宿",
    "place_id": "ChIJBfwMEmF2bjQRWMwIY4XTCL0",
    "cost": 2000
  },
  {
    "place_name": "一緒二咖啡",
    "place_id": "ChIJX4RJumV2bjQRRYcEl0ce4VU",
    "cost": 2000
  }
]